CCSDS_OMM_VERS = 2.0
CREATION_DATE  = 
ORIGINATOR     = 

OBJECT_NAME    = STARLINK-35388
OBJECT_ID      = 2025-262L
CENTER_NAME    = EARTH
REF_FRAME      = TEME
TIME_SYSTEM    = UTC
MEAN_ELEMENT_THEORY = SGP/SGP4

EPOCH          = 2025-12-12T06:00:00.999648
MEAN_MOTION    = 15.40630604
ECCENTRICITY   = .00013917
INCLINATION    = 43.0005
RA_OF_ASC_NODE = 74.0971
ARG_OF_PERICENTER = 262.0115
MEAN_ANOMALY   = 186.4811

EPHEMERIS_TYPE = 0
CLASSIFICATION_TYPE = U
NORAD_CAT_ID   = 66466
ELEMENT_SET_NO = 999
REV_AT_EPOCH   = 556
BSTAR          = .19232573E-2
MEAN_MOTION_DOT = .80703E-3
MEAN_MOTION_DDOT = 0

CCSDS_OMM_VERS = 2.0
CREATION_DATE  = 
ORIGINATOR     = 

OBJECT_NAME    = STARLINK-35682
OBJECT_ID      = 2025-262M
CENTER_NAME    = EARTH
REF_FRAME      = TEME
TIME_SYSTEM    = UTC
MEAN_ELEMENT_THEORY = SGP/SGP4

EPOCH          = 2025-12-12T06:00:00.999648
MEAN_MOTION    = 15.40742098
ECCENTRICITY   = .00015987
INCLINATION    = 43.0006
RA_OF_ASC_NODE = 74.1593
ARG_OF_PERICENTER = 245.6927
MEAN_ANOMALY   = 177.8882

EPHEMERIS_TYPE = 0
CLASSIFICATION_TYPE = U
NORAD_CAT_ID   = 66467
ELEMENT_SET_NO = 999
REV_AT_EPOCH   = 555
BSTAR          = -.14917593E-2
MEAN_MOTION_DOT = -.622E-3
MEAN_MOTION_DDOT = 0

CCSDS_OMM_VERS = 2.0
CREATION_DATE  = 
ORIGINATOR     = 

OBJECT_NAME    = STARLINK-35331
OBJECT_ID      = 2025-262N
CENTER_NAME    = EARTH
REF_FRAME      = TEME
TIME_SYSTEM    = UTC
MEAN_ELEMENT_THEORY = SGP/SGP4

EPOCH          = 2025-12-12T06:00:00.999648
MEAN_MOTION    = 15.40712845
ECCENTRICITY   = .00016909
INCLINATION    = 43.0005
RA_OF_ASC_NODE = 74.0677
ARG_OF_PERICENTER = 279.1933
MEAN_ANOMALY   = 181.7087

EPHEMERIS_TYPE = 0
CLASSIFICATION_TYPE = U
NORAD_CAT_ID   = 66468
ELEMENT_SET_NO = 999
REV_AT_EPOCH   = 556
BSTAR          = -.80539416E-3
MEAN_MOTION_DOT = -.33813E-3
MEAN_MOTION_DDOT = 0

CCSDS_OMM_VERS = 2.0
CREATION_DATE  = 
ORIGINATOR     = 

OBJECT_NAME    = STARLINK-35451
OBJECT_ID      = 2025-262P
CENTER_NAME    = EARTH
REF_FRAME      = TEME
TIME_SYSTEM    = UTC
MEAN_ELEMENT_THEORY = SGP/SGP4

EPOCH          = 2025-12-10T16:12:32.558112
MEAN_MOTION    = 15.50219904
ECCENTRICITY   = .00004921
INCLINATION    = 43.0005
RA_OF_ASC_NODE = 83.1302
ARG_OF_PERICENTER = 334.6757
MEAN_ANOMALY   = 25.4079

EPHEMERIS_TYPE = 0
CLASSIFICATION_TYPE = U
NORAD_CAT_ID   = 66469
ELEMENT_SET_NO = 999
REV_AT_EPOCH   = 524
BSTAR          = -.29160526E-2
MEAN_MOTION_DOT = -.165698E-2
MEAN_MOTION_DDOT = 0

CCSDS_OMM_VERS = 2.0
CREATION_DATE  = 
ORIGINATOR     = 

OBJECT_NAME    = STARLINK-35655
OBJECT_ID      = 2025-262Q
CENTER_NAME    = EARTH
REF_FRAME      = TEME
TIME_SYSTEM    = UTC
MEAN_ELEMENT_THEORY = SGP/SGP4

EPOCH          = 2025-12-12T06:00:00.999648
MEAN_MOTION    = 15.40635553
ECCENTRICITY   = .00016751
INCLINATION    = 43.0005
RA_OF_ASC_NODE = 74.0366
ARG_OF_PERICENTER = 267.3365
MEAN_ANOMALY   = 206.0560

EPHEMERIS_TYPE = 0
CLASSIFICATION_TYPE = U
NORAD_CAT_ID   = 66470
ELEMENT_SET_NO = 999
REV_AT_EPOCH   = 556
BSTAR          = .17247068E-2
MEAN_MOTION_DOT = .72272E-3
MEAN_MOTION_DDOT = 0

CCSDS_OMM_VERS = 2.0
CREATION_DATE  = 
ORIGINATOR     = 

OBJECT_NAME    = STARLINK-35569
OBJECT_ID      = 2025-262R
CENTER_NAME    = EARTH
REF_FRAME      = TEME
TIME_SYSTEM    = UTC
MEAN_ELEMENT_THEORY = SGP/SGP4

EPOCH          = 2025-12-12T06:00:00.999648
MEAN_MOTION    = 15.41021493
ECCENTRICITY   = .00012325
INCLINATION    = 43.0007
RA_OF_ASC_NODE = 74.0066
ARG_OF_PERICENTER = 275.1544
MEAN_ANOMALY   = 210.5129

EPHEMERIS_TYPE = 0
CLASSIFICATION_TYPE = U
NORAD_CAT_ID   = 66471
ELEMENT_SET_NO = 999
REV_AT_EPOCH   = 556
BSTAR          = -.13868384E-1
MEAN_MOTION_DOT = -.545793E-2
MEAN_MOTION_DDOT = 0

CCSDS_OMM_VERS = 2.0
CREATION_DATE  = 
ORIGINATOR     = 

OBJECT_NAME    = STARLINK-35567
OBJECT_ID      = 2025-262S
CENTER_NAME    = EARTH
REF_FRAME      = TEME
TIME_SYSTEM    = UTC
MEAN_ELEMENT_THEORY = SGP/SGP4

EPOCH          = 2025-12-12T06:00:00.999648
MEAN_MOTION    = 15.44124601
ECCENTRICITY   = .00010706
INCLINATION    = 43.0003
RA_OF_ASC_NODE = 73.9581
ARG_OF_PERICENTER = 279.7549
MEAN_ANOMALY   = 226.2144

EPHEMERIS_TYPE = 0
CLASSIFICATION_TYPE = U
NORAD_CAT_ID   = 66472
ELEMENT_SET_NO = 999
REV_AT_EPOCH   = 556
BSTAR          = -.48714686E-1
MEAN_MOTION_DOT = -.2031252E-1
MEAN_MOTION_DDOT = 0

CCSDS_OMM_VERS = 2.0
CREATION_DATE  = 
ORIGINATOR     = 

OBJECT_NAME    = STARLINK-35568
OBJECT_ID      = 2025-262T
CENTER_NAME    = EARTH
REF_FRAME      = TEME
TIME_SYSTEM    = UTC
MEAN_ELEMENT_THEORY = SGP/SGP4

EPOCH          = 2025-12-11T07:39:08.069760
MEAN_MOTION    = 15.50526439
ECCENTRICITY   = .00047596
INCLINATION    = 42.9998
RA_OF_ASC_NODE = 79.3576
ARG_OF_PERICENTER = 252.6139
MEAN_ANOMALY   = 107.4201

EPHEMERIS_TYPE = 0
CLASSIFICATION_TYPE = U
NORAD_CAT_ID   = 66473
ELEMENT_SET_NO = 999
REV_AT_EPOCH   = 534
BSTAR          = .38259112E-2
MEAN_MOTION_DOT = .230458E-2
MEAN_MOTION_DDOT = 0

CCSDS_OMM_VERS = 2.0
CREATION_DATE  = 
ORIGINATOR     = 

OBJECT_NAME    = STARLINK-35620
OBJECT_ID      = 2025-262U
CENTER_NAME    = EARTH
REF_FRAME      = TEME
TIME_SYSTEM    = UTC
MEAN_ELEMENT_THEORY = SGP/SGP4

EPOCH          = 2025-12-11T07:38:34.341792
MEAN_MOTION    = 15.50718811
ECCENTRICITY   = .00019374
INCLINATION    = 43.0007
RA_OF_ASC_NODE = 79.3535
ARG_OF_PERICENTER = 275.2448
MEAN_ANOMALY   = 84.8191

EPHEMERIS_TYPE = 0
CLASSIFICATION_TYPE = U
NORAD_CAT_ID   = 66474
ELEMENT_SET_NO = 999
REV_AT_EPOCH   = 534
BSTAR          = .36220445E-2
MEAN_MOTION_DOT = .219297E-2
MEAN_MOTION_DDOT = 0

CCSDS_OMM_VERS = 2.0
CREATION_DATE  = 
ORIGINATOR     = 

OBJECT_NAME    = STARLINK-35538
OBJECT_ID      = 2025-262V
CENTER_NAME    = EARTH
REF_FRAME      = TEME
TIME_SYSTEM    = UTC
MEAN_ELEMENT_THEORY = SGP/SGP4

EPOCH          = 2025-12-12T05:17:12.814080
MEAN_MOTION    = 15.49531988
ECCENTRICITY   = .00074148
INCLINATION    = 43.0002
RA_OF_ASC_NODE = 74.0815
ARG_OF_PERICENTER = 203.6490
MEAN_ANOMALY   = 156.4030

EPHEMERIS_TYPE = 0
CLASSIFICATION_TYPE = U
NORAD_CAT_ID   = 66475
ELEMENT_SET_NO = 999
REV_AT_EPOCH   = 548
BSTAR          = .20630867E-2
MEAN_MOTION_DOT = .118164E-2
MEAN_MOTION_DDOT = 0

CCSDS_OMM_VERS = 2.0
CREATION_DATE  = 
ORIGINATOR     = 

OBJECT_NAME    = STARLINK-35372
OBJECT_ID      = 2025-262W
CENTER_NAME    = EARTH
REF_FRAME      = TEME
TIME_SYSTEM    = UTC
MEAN_ELEMENT_THEORY = SGP/SGP4

EPOCH          = 2025-12-11T15:21:21.149568
MEAN_MOTION    = 15.50643698
ECCENTRICITY   = .00013866
INCLINATION    = 43.0002
RA_OF_ASC_NODE = 77.4654
ARG_OF_PERICENTER = 284.0040
MEAN_ANOMALY   = 76.0666

EPHEMERIS_TYPE = 0
CLASSIFICATION_TYPE = U
NORAD_CAT_ID   = 66476
ELEMENT_SET_NO = 999
REV_AT_EPOCH   = 528
BSTAR          = .28408412E-2
MEAN_MOTION_DOT = .170386E-2
MEAN_MOTION_DDOT = 0

CCSDS_OMM_VERS = 2.0
CREATION_DATE  = 
ORIGINATOR     = 

OBJECT_NAME    = STARLINK-35354
OBJECT_ID      = 2025-262X
CENTER_NAME    = EARTH
REF_FRAME      = TEME
TIME_SYSTEM    = UTC
MEAN_ELEMENT_THEORY = SGP/SGP4

EPOCH          = 2025-12-11T07:36:34.693344
MEAN_MOTION    = 15.50668561
ECCENTRICITY   = .00016097
INCLINATION    = 43.0001
RA_OF_ASC_NODE = 79.3431
ARG_OF_PERICENTER = 267.1783
MEAN_ANOMALY   = 92.8893

EPHEMERIS_TYPE = 0
CLASSIFICATION_TYPE = U
NORAD_CAT_ID   = 66477
ELEMENT_SET_NO = 999
REV_AT_EPOCH   = 534
BSTAR          = .26959533E-2
MEAN_MOTION_DOT = .16164E-2
MEAN_MOTION_DDOT = 0

