STARLINK-35388          
1 66466U 25262L   25346.25001157  .00080703  00000+0  19233-2 0  9993
2 66466  43.0005  74.0971 0001391 262.0115 186.4811 15.40630604  5565
STARLINK-35682          
1 66467U 25262M   25346.25001157 -.00062200  00000+0 -14918-2 0  9993
2 66467  43.0006  74.1593 0001598 245.6927 177.8882 15.40742098  5557
STARLINK-35331          
1 66468U 25262N   25346.25001157 -.00033813  00000+0 -80539-3 0  9995
2 66468  43.0005  74.0677 0001690 279.1933 181.7087 15.40712845  5560
STARLINK-35451          
1 66469U 25262P   25344.67537683 -.00165698  00000+0 -29161-2 0  9998
2 66469  43.0005  83.1302 0000492 334.6757  25.4079 15.50219904  5246
STARLINK-35655          
1 66470U 25262Q   25346.25001157  .00072272  00000+0  17247-2 0  9993
2 66470  43.0005  74.0366 0001675 267.3365 206.0560 15.40635553  5566
STARLINK-35569          
1 66471U 25262R   25346.25001157 -.00545793  00000+0 -13868-1 0  9993
2 66471  43.0007  74.0066 0001232 275.1544 210.5129 15.41021493  5565
STARLINK-35567          
1 66472U 25262S   25346.25001157 -.02031252  00000+0 -48715-1 0  9995
2 66472  43.0003  73.9581 0001070 279.7549 226.2144 15.44124601  5566
STARLINK-35568          
1 66473U 25262T   25345.31884340  .00230458  00000+0  38259-2 0  9993
2 66473  42.9998  79.3576 0004759 252.6139 107.4201 15.50526439  5346
STARLINK-35620          
1 66474U 25262U   25345.31845303  .00219297  00000+0  36220-2 0  9994
2 66474  43.0007  79.3535 0001937 275.2448  84.8191 15.50718811  5347
STARLINK-35538          
1 66475U 25262V   25346.22028720  .00118164  00000+0  20631-2 0  9992
2 66475  43.0002  74.0815 0007414 203.6490 156.4030 15.49531988  5483
STARLINK-35372          
1 66476U 25262W   25345.63982812  .00170386  00000+0  28408-2 0  9992
2 66476  43.0002  77.4654 0001386 284.0040  76.0666 15.50643698  5282
STARLINK-35354          
1 66477U 25262X   25345.31706821  .00161640  00000+0  26960-2 0  9996
2 66477  43.0001  79.3431 0001609 267.1783  92.8893 15.50668561  5341
